STARLINK-33549          
1 62289U 24237Y   26068.45321631  .00032138  00000+0  11712-2 0  9992
2 62289  43.0014 217.8770 0002339 162.9864 197.1066 15.27608759 71150
FLOCK 4G-36             
1 62675U 25009BU  26068.70726311  .00013573  00000+0  51122-3 0  9993
2 62675  97.4053 151.0513 0003474 324.2456  35.8550 15.27209548 63701
